[{"OBJECT_NAME":"JILIN-1 03","OBJECT_ID":"2017-002B","EPOCH":"2026-03-09T22:57:29.366496","MEAN_MOTION":15.38983812,"ECCENTRICITY":0.00069508,"INCLINATION":97.2,"RA_OF_ASC_NODE":77.6042,"ARG_OF_PERICENTER":152.8712,"MEAN_ANOMALY":207.2899,"EPHEMERIS_TYPE":0,"CLASSIFICATION_TYPE":"U","NORAD_CAT_ID":41914,"ELEMENT_SET_NO":999,"REV_AT_EPOCH":50658,"BSTAR":0.00043938316,"MEAN_MOTION_DOT":0.00016907,"MEAN_MOTION_DDOT":0},{"OBJECT_NAME":"DANDE","OBJECT_ID":"2013-055C","EPOCH":"2026-03-09T22:31:17.292576","MEAN_MOTION":14.76534852,"ECCENTRICITY":0.04736914,"INCLINATION":80.988,"RA_OF_ASC_NODE":283.8166,"ARG_OF_PERICENTER":234.3414,"MEAN_ANOMALY":121.2825,"EPHEMERIS_TYPE":0,"CLASSIFICATION_TYPE":"U","NORAD_CAT_ID":39267,"ELEMENT_SET_NO":999,"REV_AT_EPOCH":64554,"BSTAR":0.00031071998,"MEAN_MOTION_DOT":0.00015936,"MEAN_MOTION_DDOT":0}]
